{
  "type": "FeatureCollection",
  "features": [
    {
      "type": "Feature",
      "properties": {
        "norad_id": 34969,
        "name": "COSMOS 2251 DEB",
        "group": "cosmos-2251-debris",
        "lat": -11.24598974900702,
        "lon": 34.79459983415623,
        "alt_km": 841.360278085991,
        "timestamp": "2025-12-04T13:52:00.837336+00:00",
        "meta_object_name": "COSMOS 2251 DEB",
        "meta_object_id": "1993-036AEY",
        "meta_epoch": "2025-11-27T22:39:52.818912",
        "meta_mean_motion": 14.32217313,
        "meta_eccentricity": 0.0074445,
        "meta_inclination": 74.0147,
        "meta_ra_of_asc_node": 50.1773,
        "meta_arg_of_pericenter": 186.867,
        "meta_mean_anomaly": 173.1469,
        "meta_ephemeris_type": 0,
        "meta_classification_type": "U",
        "meta_norad_cat_id": 34969,
        "meta_element_set_no": 999,
        "meta_rev_at_epoch": 64925,
        "meta_bstar": 0.00041332,
        "meta_mean_motion_dot": 1.123e-05,
        "meta_mean_motion_ddot": 0,
        "tle_line1": "1 34969U 93036AEY 25331.94436133  .00001123  00000+0  41332-3 0  9991",
        "tle_line2": "2 34969  74.0147  50.1773 0074445 186.8670 173.1469 14.32217313649253"
      },
      "geometry": {
        "type": "Point",
        "coordinates": [
          34.79459983415623,
          -11.24598974900702
        ]
      }
    },
    {
      "type": "Feature",
      "properties": {
        "norad_id": 34971,
        "name": "COSMOS 2251 DEB",
        "group": "cosmos-2251-debris",
        "lat": -6.242072992347354,
        "lon": -61.26974228537452,
        "alt_km": 760.1481453447432,
        "timestamp": "2025-12-04T13:52:00.837347+00:00",
        "meta_object_name": "COSMOS 2251 DEB",
        "meta_object_id": "1993-036AFA",
        "meta_epoch": "2025-12-04T04:04:33.254112",
        "meta_mean_motion": 14.55612791,
        "meta_eccentricity": 0.00699688,
        "meta_inclination": 73.9782,
        "meta_ra_of_asc_node": 301.3068,
        "meta_arg_of_pericenter": 169.1818,
        "meta_mean_anomaly": 207.5998,
        "meta_ephemeris_type": 0,
        "meta_classification_type": "U",
        "meta_norad_cat_id": 34971,
        "meta_element_set_no": 999,
        "meta_rev_at_epoch": 66048,
        "meta_bstar": 0.00032049169,
        "meta_mean_motion_dot": 1.415e-05,
        "meta_mean_motion_ddot": 0,
        "tle_line1": "1 34971U 93036AFA 25338.16982933  .00001415  00000+0  32049-3 0  9998",
        "tle_line2": "2 34971  73.9782 301.3068 0069968 169.1818 207.5998 14.55612791660480"
      },
      "geometry": {
        "type": "Point",
        "coordinates": [
          -61.26974228537452,
          -6.242072992347354
        ]
      }
    },
    {
      "type": "Feature",
      "properties": {
        "norad_id": 34972,
        "name": "COSMOS 2251 DEB",
        "group": "cosmos-2251-debris",
        "lat": 71.26576718117622,
        "lon": -172.05234198411222,
        "alt_km": 659.5686701420536,
        "timestamp": "2025-12-04T13:52:00.837357+00:00",
        "meta_object_name": "COSMOS 2251 DEB",
        "meta_object_id": "1993-036AFB",
        "meta_epoch": "2025-12-03T06:34:34.182336",
        "meta_mean_motion": 14.72590746,
        "meta_eccentricity": 0.0034486,
        "meta_inclination": 73.9887,
        "meta_ra_of_asc_node": 68.345,
        "meta_arg_of_pericenter": 228.4328,
        "meta_mean_anomaly": 162.7226,
        "meta_ephemeris_type": 0,
        "meta_classification_type": "U",
        "meta_norad_cat_id": 34972,
        "meta_element_set_no": 999,
        "meta_rev_at_epoch": 87511,
        "meta_bstar": 0.0021523,
        "meta_mean_motion_dot": 0.0001382,
        "meta_mean_motion_ddot": 0,
        "tle_line1": "1 34972U 93036AFB 25337.27400674  .00013820  00000+0  21523-2 0  9994",
        "tle_line2": "2 34972  73.9887  68.3450 0034486 228.4328 162.7226 14.72590746875112"
      },
      "geometry": {
        "type": "Point",
        "coordinates": [
          -172.05234198411222,
          71.26576718117622
        ]
      }
    },
    {
      "type": "Feature",
      "properties": {
        "norad_id": 34976,
        "name": "COSMOS 2251 DEB",
        "group": "cosmos-2251-debris",
        "lat": 73.79311342110316,
        "lon": 41.794030170986744,
        "alt_km": 625.631987875101,
        "timestamp": "2025-12-04T13:52:00.837367+00:00",
        "meta_object_name": "COSMOS 2251 DEB",
        "meta_object_id": "1993-036AFF",
        "meta_epoch": "2025-12-04T05:24:30.233952",
        "meta_mean_motion": 14.76276961,
        "meta_eccentricity": 0.00478109,
        "meta_inclination": 74.0569,
        "meta_ra_of_asc_node": 322.9043,
        "meta_arg_of_pericenter": 11.4393,
        "meta_mean_anomaly": 2.8497,
        "meta_ephemeris_type": 0,
        "meta_classification_type": "U",
        "meta_norad_cat_id": 34976,
        "meta_element_set_no": 999,
        "meta_rev_at_epoch": 88148,
        "meta_bstar": 0.0030483512,
        "meta_mean_motion_dot": 0.00021562,
        "meta_mean_motion_ddot": 0,
        "tle_line1": "1 34976U 93036AFF 25338.22534993  .00021562  00000+0  30484-2 0  9994",
        "tle_line2": "2 34976  74.0569 322.9043 0047810  11.4393   2.8497 14.76276961881484"
      },
      "geometry": {
        "type": "Point",
        "coordinates": [
          41.794030170986744,
          73.79311342110316
        ]
      }
    },
    {
      "type": "Feature",
      "properties": {
        "norad_id": 34979,
        "name": "COSMOS 2251 DEB",
        "group": "cosmos-2251-debris",
        "lat": 50.3910506111002,
        "lon": -56.4510520076973,
        "alt_km": 605.1026133822206,
        "timestamp": "2025-12-04T13:52:00.837378+00:00",
        "meta_object_name": "COSMOS 2251 DEB",
        "meta_object_id": "1993-036AFJ",
        "meta_epoch": "2025-12-04T05:30:45.131328",
        "meta_mean_motion": 14.79068342,
        "meta_eccentricity": 0.0049249,
        "meta_inclination": 74.0403,
        "meta_ra_of_asc_node": 284.0014,
        "meta_arg_of_pericenter": 3.792,
        "meta_mean_anomaly": 356.3618,
        "meta_ephemeris_type": 0,
        "meta_classification_type": "U",
        "meta_norad_cat_id": 34979,
        "meta_element_set_no": 999,
        "meta_rev_at_epoch": 88094,
        "meta_bstar": 0.0032151669,
        "meta_mean_motion_dot": 0.00024338,
        "meta_mean_motion_ddot": 0,
        "tle_line1": "1 34979U 93036AFJ 25338.22968902  .00024338  00000+0  32152-2 0  9996",
        "tle_line2": "2 34979  74.0403 284.0014 0049249   3.7920 356.3618 14.79068342880945"
      },
      "geometry": {
        "type": "Point",
        "coordinates": [
          -56.4510520076973,
          50.3910506111002
        ]
      }
    },
    {
      "type": "Feature",
      "properties": {
        "norad_id": 34990,
        "name": "COSMOS 2251 DEB",
        "group": "cosmos-2251-debris",
        "lat": 19.975774726522424,
        "lon": 80.4989086749108,
        "alt_km": 761.8524231013434,
        "timestamp": "2025-12-04T13:52:00.837388+00:00",
        "meta_object_name": "COSMOS 2251 DEB",
        "meta_object_id": "1993-036AFN",
        "meta_epoch": "2025-11-30T02:35:36.793536",
        "meta_mean_motion": 14.42317714,
        "meta_eccentricity": 0.00161518,
        "meta_inclination": 74.0452,
        "meta_ra_of_asc_node": 274.7497,
        "meta_arg_of_pericenter": 338.715,
        "meta_mean_anomaly": 21.3332,
        "meta_ephemeris_type": 0,
        "meta_classification_type": "U",
        "meta_norad_cat_id": 34990,
        "meta_element_set_no": 999,
        "meta_rev_at_epoch": 87164,
        "meta_bstar": 0.00051741405,
        "meta_mean_motion_dot": 1.685e-05,
        "meta_mean_motion_ddot": 0,
        "tle_line1": "1 34990U 93036AFN 25334.10806474  .00001685  00000+0  51741-3 0  9993",
        "tle_line2": "2 34990  74.0452 274.7497 0016151 338.7150  21.3332 14.42317714871644"
      },
      "geometry": {
        "type": "Point",
        "coordinates": [
          80.4989086749108,
          19.975774726522424
        ]
      }
    },
    {
      "type": "Feature",
      "properties": {
        "norad_id": 34997,
        "name": "COSMOS 2251 DEB",
        "group": "cosmos-2251-debris",
        "lat": -48.975696988104495,
        "lon": 165.98057445824577,
        "alt_km": 724.0808803148857,
        "timestamp": "2025-12-04T13:52:00.837399+00:00",
        "meta_object_name": "COSMOS 2251 DEB",
        "meta_object_id": "1993-036AFV",
        "meta_epoch": "2025-11-29T18:09:59.976288",
        "meta_mean_motion": 14.45289096,
        "meta_eccentricity": 0.00981723,
        "meta_inclination": 73.8805,
        "meta_ra_of_asc_node": 335.6343,
        "meta_arg_of_pericenter": 312.7593,
        "meta_mean_anomaly": 46.5333,
        "meta_ephemeris_type": 0,
        "meta_classification_type": "U",
        "meta_norad_cat_id": 34997,
        "meta_element_set_no": 999,
        "meta_rev_at_epoch": 70559,
        "meta_bstar": 0.0014679127,
        "meta_mean_motion_dot": 5.442e-05,
        "meta_mean_motion_ddot": 0,
        "tle_line1": "1 34997U 93036AFV 25333.75694417  .00005442  00000+0  14679-2 0  9995",
        "tle_line2": "2 34997  73.8805 335.6343 0098172 312.7593  46.5333 14.45289096705597"
      },
      "geometry": {
        "type": "Point",
        "coordinates": [
          165.98057445824577,
          -48.975696988104495
        ]
      }
    }
  ]
}